COSMOS 2419 (714)       
1 28915U 05050A   17054.70661057  .00000038  00000-0  00000+0 0  9994
2 28915  65.4405  69.6763 0016256 345.4264 154.9634  2.13110290 86911
COSMOS 2425 (716)       
1 29670U 06062A   17055.16100447  .00000006  00000-0  10000-3 0  9999
2 29670  65.5170 308.6745 0022937 346.7465 196.2439  2.13104937 79124
COSMOS 2426 (717)       
1 29671U 06062B   17054.54118894  .00000001  00000-0  10000-3 0  9991
2 29671  65.5333 308.7826 0015622 162.9037 123.7186  2.13103047 79117
COSMOS 2424 (715)       
1 29672U 06062C   17055.11019168  .00000006  00000-0  10000-3 0  9995
2 29672  65.5179 308.6864 0015059 162.0660  16.6840  2.13102044 79128
COSMOS 2433 (720)       
1 32275U 07052A   17055.09598647  .00000038  00000-0  10000-3 0  9994
2 32275  65.4562  69.4381 0005120 276.7294  48.5769  2.13105082 72634
COSMOS 2432 (719)       
1 32276U 07052B   17054.72270478  .00000038  00000-0  10000-3 0  9993
2 32276  65.4685  69.5204 0013163 327.4515  24.6116  2.13104069 72626
COSMOS 2434 (721)       
1 32393U 07065A   17055.44789948  .00000009  00000-0  00000+0 0  9997
2 32393  65.1329 307.8670 0003822  84.9467  40.5419  2.13102813 71352
COSMOS 2436 (723)       
1 32395U 07065C   17055.42019565  .00000008  00000-0  10000-3 0  9992
2 32395  65.1417 307.9124 0016607   0.4329 151.9243  2.13104205 71283
COSMOS 2443 (725)       
1 33379U 08046B   17055.20428514  .00000038  00000-0  00000+0 0  9997
2 33379  65.3863  68.8276 0016017 188.5105 121.7911  2.13102249 65500
COSMOS 2456 (730)       
1 36111U 09070A   17054.74055778  .00000013  00000-0  00000+0 0  9991
2 36111  64.1814 187.4562 0003410 337.3892 136.1375  2.13102820 56000
COSMOS 2457 (733)       
1 36112U 09070B   17055.05515317  .00000013  00000-0  00000+0 0  9997
2 36112  64.1632 187.3661 0006979 153.1842 330.7827  2.13101504 56013
COSMOS 2458 (734)       
1 36113U 09070C   17055.02862426  .00000013  00000-0  10000-3 0  9996
2 36113  64.1688 187.3744 0002459  55.0581  96.3455  2.13102014 56015
COSMOS 2459 (731)       
1 36400U 10007A   17054.67746660  .00000037  00000-0  10000-3 0  9994
2 36400  65.3647  68.5727 0028749 348.0231 239.2453  2.13102244 54356
COSMOS 2461 (735)       
1 36401U 10007B   17055.39843178  .00000037  00000-0  10000-3 0  9997
2 36401  65.3582  68.5278 0004742  48.8217 282.1354  2.13102252 54369
COSMOS 2460 (732)       
1 36402U 10007C   17054.69888834  .00000037  00000-0  10000-3 0  9998
2 36402  65.3482  68.5254 0002435 289.8494 265.9386  2.13101840 54359
COSMOS 2465 (737)       
1 37138U 10041B   17054.84073486  .00000004  00000-0  00000+0 0  9998
2 37138  64.7309 307.9332 0033901 171.2160 252.2983  2.13104485 50435
COSMOS 2464 (736)       
1 37139U 10041C   17054.77206966  .00000004  00000-0  00000-0 0  9993
2 37139  64.7386 307.9338 0024657  11.7611 182.9872  2.13102608 50435
COSMOS 2471 (701K)      
1 37372U 11009A   17054.90159308  .00000037  00000-0  00000+0 0  9994
2 37372  65.3457  68.4658 0009275 244.3793 240.6619  2.13107973 46636
COSMOS 2474 (742)       
1 37829U 11055A   17055.03027009  .00000014  00000-0  00000+0 0  9994
2 37829  64.5052 187.9620 0006512 244.9593 311.1147  2.13101883 42007
COSMOS 2476 (744)       
1 37867U 11064A   17054.83451616  .00000014  00000-0  00000+0 0  9998
2 37867  64.4846 188.0443 0015662 241.8271 209.9733  2.13101939 41353
COSMOS 2477 (745)       
1 37868U 11064B   17054.72218397  .00000014  00000-0  00000+0 0  9994
2 37868  64.4935 188.0920 0013597 242.9967 301.8254  2.13101775 41305
COSMOS 2475 (743)       
1 37869U 11064C   17054.74703127  .00000014  00000-0  00000+0 0  9997
2 37869  64.5009 188.0800 0018466 273.0967 247.1266  2.13101878 41311
COSMOS 2485 (747)       
1 39155U 13019A   17054.75915667  .00000014  00000-0  00000-0 0  9995
2 39155  64.6542 188.0513 0016193 235.9651 203.0933  2.13101954 29826
COSMOS 2492 (754)       
1 39620U 14012A   17055.57577598  .00000037  00000-0  10000-3 0  9993
2 39620  65.2387  68.4478 0016828 325.5486  53.8828  2.13103506 22793
COSMOS 2500 (755)       
1 40001U 14032A   17054.54919497  .00000036  00000-0  00000+0 0  9998
2 40001  65.1768  68.4889 0006874 227.1482 307.9785  2.13102832 20984
COSMOS 2501 (702K)      
1 40315U 14075A   17054.77553199 -.00000000  00000-0  00000+0 0  9993
2 40315  64.4644 309.3160 0013602 211.3214 305.0385  2.13098667 17397
COSMOS 2514 (751)       
1 41330U 16008A   17055.14331552  .00000036  00000-0  00000+0 0  9996
2 41330  64.9791  68.6404 0010346 229.1488 221.4716  2.13103428  8167
COSMOS 2516 (753)       
1 41554U 16032A   17054.48522360 -.00000001  00000-0  00000-0 0  9990
2 41554  64.6863 309.0581 0010409 228.7418 330.2455  2.13101634  5756
